CCSDS_OMM_VERS = 2.0
CREATION_DATE  = 
ORIGINATOR     = 

OBJECT_NAME    = SL-14 R/B
OBJECT_ID      = 1986-046B
CENTER_NAME    = EARTH
REF_FRAME      = TEME
TIME_SYSTEM    = UTC
MEAN_ELEMENT_THEORY = SGP/SGP4

EPOCH          = 2026-02-19T01:58:49.710720
MEAN_MOTION    = 14.85571313
ECCENTRICITY   = .0021598
INCLINATION    = 82.4797
RA_OF_ASC_NODE = 97.7677
ARG_OF_PERICENTER = 290.7609
MEAN_ANOMALY   = 69.1293

EPHEMERIS_TYPE = 0
CLASSIFICATION_TYPE = U
NORAD_CAT_ID   = 16792
ELEMENT_SET_NO = 999
REV_AT_EPOCH   = 12364
BSTAR          = .44152E-4
MEAN_MOTION_DOT = .407E-5
MEAN_MOTION_DDOT = 0

CCSDS_OMM_VERS = 2.0
CREATION_DATE  = 
ORIGINATOR     = 

OBJECT_NAME    = SL-14 R/B
OBJECT_ID      = 1986-055B
CENTER_NAME    = EARTH
REF_FRAME      = TEME
TIME_SYSTEM    = UTC
MEAN_ELEMENT_THEORY = SGP/SGP4

EPOCH          = 2026-02-18T19:46:29.089920
MEAN_MOTION    = 14.85622846
ECCENTRICITY   = .0019787
INCLINATION    = 82.5230
RA_OF_ASC_NODE = 144.4020
ARG_OF_PERICENTER = 38.4534
MEAN_ANOMALY   = 100.9543

EPHEMERIS_TYPE = 0
CLASSIFICATION_TYPE = U
NORAD_CAT_ID   = 16882
ELEMENT_SET_NO = 999
REV_AT_EPOCH   = 11656
BSTAR          = .51807E-4
MEAN_MOTION_DOT = .474E-5
MEAN_MOTION_DDOT = 0

CCSDS_OMM_VERS = 2.0
CREATION_DATE  = 
ORIGINATOR     = 

OBJECT_NAME    = AJISAI (EGS)
OBJECT_ID      = 1986-061A
CENTER_NAME    = EARTH
REF_FRAME      = TEME
TIME_SYSTEM    = UTC
MEAN_ELEMENT_THEORY = SGP/SGP4

EPOCH          = 2026-02-19T03:58:33.989952
MEAN_MOTION    = 12.44515341
ECCENTRICITY   = .0011235
INCLINATION    = 50.0084
RA_OF_ASC_NODE = 150.3093
ARG_OF_PERICENTER = 239.2548
MEAN_ANOMALY   = 194.9265

EPHEMERIS_TYPE = 0
CLASSIFICATION_TYPE = U
NORAD_CAT_ID   = 16908
ELEMENT_SET_NO = 999
REV_AT_EPOCH   = 46569
BSTAR          = .10126E-3
MEAN_MOTION_DOT = -.83E-6
MEAN_MOTION_DDOT = 0

CCSDS_OMM_VERS = 2.0
CREATION_DATE  = 
ORIGINATOR     = 

OBJECT_NAME    = COSMOS 1812
OBJECT_ID      = 1987-003A
CENTER_NAME    = EARTH
REF_FRAME      = TEME
TIME_SYSTEM    = UTC
MEAN_ELEMENT_THEORY = SGP/SGP4

EPOCH          = 2026-02-19T01:38:28.064832
MEAN_MOTION    = 16.02484391
ECCENTRICITY   = .0003603
INCLINATION    = 82.4741
RA_OF_ASC_NODE = 216.8767
ARG_OF_PERICENTER = 298.6756
MEAN_ANOMALY   = 61.4160

EPHEMERIS_TYPE = 0
CLASSIFICATION_TYPE = U
NORAD_CAT_ID   = 17295
ELEMENT_SET_NO = 999
REV_AT_EPOCH   = 14148
BSTAR          = .6649E-3
MEAN_MOTION_DOT = .388868E-2
MEAN_MOTION_DDOT = .64923E-4

CCSDS_OMM_VERS = 2.0
CREATION_DATE  = 
ORIGINATOR     = 

OBJECT_NAME    = SL-14 R/B
OBJECT_ID      = 1987-024B
CENTER_NAME    = EARTH
REF_FRAME      = TEME
TIME_SYSTEM    = UTC
MEAN_ELEMENT_THEORY = SGP/SGP4

EPOCH          = 2026-02-19T02:56:42.510336
MEAN_MOTION    = 14.86113632
ECCENTRICITY   = .0017285
INCLINATION    = 82.5273
RA_OF_ASC_NODE = 110.2166
ARG_OF_PERICENTER = 326.3927
MEAN_ANOMALY   = 33.6191

EPHEMERIS_TYPE = 0
CLASSIFICATION_TYPE = U
NORAD_CAT_ID   = 17567
ELEMENT_SET_NO = 999
REV_AT_EPOCH   = 8537
BSTAR          = .43912E-4
MEAN_MOTION_DOT = .41E-5
MEAN_MOTION_DDOT = 0

CCSDS_OMM_VERS = 2.0
CREATION_DATE  = 
ORIGINATOR     = 

OBJECT_NAME    = COSMOS 1833
OBJECT_ID      = 1987-027A
CENTER_NAME    = EARTH
REF_FRAME      = TEME
TIME_SYSTEM    = UTC
MEAN_ELEMENT_THEORY = SGP/SGP4

EPOCH          = 2026-02-19T02:25:30.517824
MEAN_MOTION    = 14.13057306
ECCENTRICITY   = .0024853
INCLINATION    = 70.9230
RA_OF_ASC_NODE = 5.0835
ARG_OF_PERICENTER = 239.9216
MEAN_ANOMALY   = 119.9440

EPHEMERIS_TYPE = 0
CLASSIFICATION_TYPE = U
NORAD_CAT_ID   = 17589
ELEMENT_SET_NO = 999
REV_AT_EPOCH   = 769
BSTAR          = -.10017E-4
MEAN_MOTION_DOT = -.67E-6
MEAN_MOTION_DDOT = 0

CCSDS_OMM_VERS = 2.0
CREATION_DATE  = 
ORIGINATOR     = 

OBJECT_NAME    = SL-16 R/B
OBJECT_ID      = 1987-027B
CENTER_NAME    = EARTH
REF_FRAME      = TEME
TIME_SYSTEM    = UTC
MEAN_ELEMENT_THEORY = SGP/SGP4

EPOCH          = 2026-02-19T03:05:08.566368
MEAN_MOTION    = 14.17164405
ECCENTRICITY   = .0004458
INCLINATION    = 71.0040
RA_OF_ASC_NODE = 315.6082
ARG_OF_PERICENTER = 176.1397
MEAN_ANOMALY   = 183.9762

EPHEMERIS_TYPE = 0
CLASSIFICATION_TYPE = U
NORAD_CAT_ID   = 17590
ELEMENT_SET_NO = 999
REV_AT_EPOCH   = 1271
BSTAR          = .15264E-3
MEAN_MOTION_DOT = .26E-5
MEAN_MOTION_DDOT = 0

CCSDS_OMM_VERS = 2.0
CREATION_DATE  = 
ORIGINATOR     = 

OBJECT_NAME    = SL-14 R/B
OBJECT_ID      = 1987-038B
CENTER_NAME    = EARTH
REF_FRAME      = TEME
TIME_SYSTEM    = UTC
MEAN_ELEMENT_THEORY = SGP/SGP4

EPOCH          = 2026-02-19T04:12:41.814144
MEAN_MOTION    = 14.85351118
ECCENTRICITY   = .0018106
INCLINATION    = 82.5034
RA_OF_ASC_NODE = 314.2462
ARG_OF_PERICENTER = 222.6820
MEAN_ANOMALY   = 137.2990

EPHEMERIS_TYPE = 0
CLASSIFICATION_TYPE = U
NORAD_CAT_ID   = 17912
ELEMENT_SET_NO = 999
REV_AT_EPOCH   = 7648
BSTAR          = .46783E-4
MEAN_MOTION_DOT = .427E-5
MEAN_MOTION_DDOT = 0

CCSDS_OMM_VERS = 2.0
CREATION_DATE  = 
ORIGINATOR     = 

OBJECT_NAME    = COSMOS 1844
OBJECT_ID      = 1987-041A
CENTER_NAME    = EARTH
REF_FRAME      = TEME
TIME_SYSTEM    = UTC
MEAN_ELEMENT_THEORY = SGP/SGP4

EPOCH          = 2026-02-19T02:02:42.969984
MEAN_MOTION    = 14.14550007
ECCENTRICITY   = .0029088
INCLINATION    = 70.8981
RA_OF_ASC_NODE = 73.4183
ARG_OF_PERICENTER = 47.4389
MEAN_ANOMALY   = 312.9181

EPHEMERIS_TYPE = 0
CLASSIFICATION_TYPE = U
NORAD_CAT_ID   = 17973
ELEMENT_SET_NO = 999
REV_AT_EPOCH   = 95
BSTAR          = .16635E-3
MEAN_MOTION_DOT = .272E-5
MEAN_MOTION_DDOT = 0

CCSDS_OMM_VERS = 2.0
CREATION_DATE  = 
ORIGINATOR     = 

OBJECT_NAME    = SL-14 R/B
OBJECT_ID      = 1987-055B
CENTER_NAME    = EARTH
REF_FRAME      = TEME
TIME_SYSTEM    = UTC
MEAN_ELEMENT_THEORY = SGP/SGP4

EPOCH          = 2026-02-18T22:53:12.315264
MEAN_MOTION    = 14.85604547
ECCENTRICITY   = .0022282
INCLINATION    = 82.5013
RA_OF_ASC_NODE = 6.6852
ARG_OF_PERICENTER = 76.4539
MEAN_ANOMALY   = 283.9157

EPHEMERIS_TYPE = 0
CLASSIFICATION_TYPE = U
NORAD_CAT_ID   = 18153
ELEMENT_SET_NO = 999
REV_AT_EPOCH   = 6715
BSTAR          = .57646E-4
MEAN_MOTION_DOT = .525E-5
MEAN_MOTION_DDOT = 0

CCSDS_OMM_VERS = 2.0
CREATION_DATE  = 
ORIGINATOR     = 

OBJECT_NAME    = COSMOS 1867
OBJECT_ID      = 1987-060A
CENTER_NAME    = EARTH
REF_FRAME      = TEME
TIME_SYSTEM    = UTC
MEAN_ELEMENT_THEORY = SGP/SGP4

EPOCH          = 2026-02-19T01:37:25.895712
MEAN_MOTION    = 14.31499947
ECCENTRICITY   = .0014223
INCLINATION    = 65.0125
RA_OF_ASC_NODE = 358.8534
ARG_OF_PERICENTER = 277.5224
MEAN_ANOMALY   = 82.4245

EPHEMERIS_TYPE = 0
CLASSIFICATION_TYPE = U
NORAD_CAT_ID   = 18187
ELEMENT_SET_NO = 999
REV_AT_EPOCH   = 1727
BSTAR          = .29073E-4
MEAN_MOTION_DOT = -.23E-6
MEAN_MOTION_DDOT = 0

CCSDS_OMM_VERS = 2.0
CREATION_DATE  = 
ORIGINATOR     = 

OBJECT_NAME    = SL-14 R/B
OBJECT_ID      = 1988-001B
CENTER_NAME    = EARTH
REF_FRAME      = TEME
TIME_SYSTEM    = UTC
MEAN_ELEMENT_THEORY = SGP/SGP4

EPOCH          = 2026-02-19T00:21:32.581152
MEAN_MOTION    = 14.85503313
ECCENTRICITY   = .0016814
INCLINATION    = 82.5116
RA_OF_ASC_NODE = 212.9230
ARG_OF_PERICENTER = 302.8656
MEAN_ANOMALY   = 57.0941

EPHEMERIS_TYPE = 0
CLASSIFICATION_TYPE = U
NORAD_CAT_ID   = 18749
ELEMENT_SET_NO = 999
REV_AT_EPOCH   = 3925
BSTAR          = .52491E-4
MEAN_MOTION_DOT = .478E-5
MEAN_MOTION_DDOT = 0

