SL-14 R/B               
1 16792U 86046B   26050.08251980  .00000407  00000+0  44152-4 0  9995
2 16792  82.4797  97.7677 0021598 290.7609  69.1293 14.85571313123649
SL-14 R/B               
1 16882U 86055B   26049.82394780  .00000474  00000+0  51807-4 0  9990
2 16882  82.5230 144.4020 0019787  38.4534 100.9543 14.85622846116568
AJISAI (EGS)            
1 16908U 86061A   26050.16567118 -.00000083  00000+0  10126-3 0  9997
2 16908  50.0084 150.3093 0011235 239.2548 194.9265 12.44515341465695
COSMOS 1812             
1 17295U 87003A   26050.06838038  .00388868  64923-4  66490-3 0  9998
2 17295  82.4741 216.8767 0003603 298.6756  61.4160 16.02484391141488
SL-14 R/B               
1 17567U 87024B   26050.12271424  .00000410  00000+0  43912-4 0  9990
2 17567  82.5273 110.2166 0017285 326.3927  33.6191 14.86113632 85378
COSMOS 1833             
1 17589U 87027A   26050.10104766 -.00000067  00000+0 -10017-4 0  9999
2 17589  70.9230   5.0835 0024853 239.9216 119.9440 14.13057306  7698
SL-16 R/B               
1 17590U 87027B   26050.12857137  .00000260  00000+0  15264-3 0  9991
2 17590  71.0040 315.6082 0004458 176.1397 183.9762 14.17164405 12716
SL-14 R/B               
1 17912U 87038B   26050.17548396  .00000427  00000+0  46783-4 0  9996
2 17912  82.5034 314.2462 0018106 222.6820 137.2990 14.85351118 76487
COSMOS 1844             
1 17973U 87041A   26050.08521956  .00000272  00000+0  16635-3 0  9990
2 17973  70.8981  73.4183 0029088  47.4389 312.9181 14.14550007   956
SL-14 R/B               
1 18153U 87055B   26049.95361476  .00000525  00000+0  57646-4 0  9998
2 18153  82.5013   6.6852 0022282  76.4539 283.9157 14.85604547 67154
COSMOS 1867             
1 18187U 87060A   26050.06766083 -.00000023  00000+0  29073-4 0  9995
2 18187  65.0125 358.8534 0014223 277.5224  82.4245 14.31499947 17276
SL-14 R/B               
1 18749U 88001B   26050.01496043  .00000478  00000+0  52491-4 0  9999
2 18749  82.5116 212.9230 0016814 302.8656  57.0941 14.85503313 39251
